From: horizons@ssd.jpl.nasa.gov (Horizons Ephemeris System)
Subject: [Horizons] SMALL BODY #C(V30@399)_T(Borisov (C/2020 Q1)) (1/1)
Date: February 12, 2021 at 8:50:02 AM PST

Automated mail xmit by MAIL_REQUEST, PID= 3161 Fri Feb 12 08:50:02 2021
++++++++++++++++++++++++++++++++ (part 1 of 1)  +++++++++++++++++++++++++++++++


*******************************************************************************
Ephemeris / MAIL_REQUEST Fri Feb 12 08:50:02 2021 Pasadena, USA  / Horizons
*******************************************************************************
Target body name: Borisov (C/2020 Q1)             {source: JPL#11}
Center body name: Earth (399)                     {source: DE431}
Center-site name: Heaven on Earth Observatory, Mayhill
*******************************************************************************
Start time      : A.D. 2020-Mar-27 00:00:00.0000 TDB
Stop  time      : A.D. 2021-Mar-27 00:00:00.0000 TDB
Step-size       : 10080 minutes
*******************************************************************************
Center geodetic : 254.471000,32.9035384,2.2360688 {E-lon(deg),Lat(deg),Alt(km)}
Center cylindric: 254.471000,5362.17112,3446.1964 {E-lon(deg),Dxy(km),Dz(km)}
Center pole/equ : High-precision EOP model        {East-longitude positive}
Center radii    : 6378.1 x 6378.1 x 6356.8 km     {Equator, meridian, pole}    
Small perturbers: Yes                             {source: SB431-N16}
Output units    : AU-D
Output type     : GEOMETRIC cartesian states
Output format   : 6 (LT, range, and range-rate)
EOP file        : eop.210211.p210505
EOP coverage    : DATA-BASED 1962-JAN-20 TO 2021-FEB-11. PREDICTS-> 2021-MAY-04
Reference frame : Ecliptic of J2000.0
*******************************************************************************
Initial IAU76/J2000 heliocentric ecliptic osculating elements (au, days, deg.):
 EPOCH=  2459098.5 ! 2020-Sep-06.0000000 (TDB)    RMSW= n.a.                  
  EC= .9777644283255224   QR= 1.314950854372474   TP= 2459076.1541370279      
  OM= 52.37837382654961   W= 9.881086169108942    IN= 142.923727414656        
 Equivalent ICRF heliocentric equatorial cartesian coordinates (au, au/d):
  X= 1.145227543985495E+00  Y= 3.876999633629274E-01  Z= 6.136173720260635E-01
 VX= 7.981773693784017E-03 VY=-1.857529572489022E-02 VZ= 4.768266326428410E-03
Comet physical (GM= km^3/s^2; RAD= km):                                        
  GM= n.a.                RAD= n.a.                                           
  M1=  11.6     M2=  18.1     k1=  41.5   k2=  5.      PHCOF=  .030           
*******************************************************************************
           JDTDB,            Calendar Date (TDB),                     LT,                     RG,                     RR,
**************************************************************************************************************************
$$SOE
2458935.500000000, A.D. 2020-Mar-27 00:00:00.0000,  1.271494701396870E-02,  2.201524830206040E+00,  8.508662277406407E-03,
2458942.500000000, A.D. 2020-Apr-03 00:00:00.0000,  1.307481719667165E-02,  2.263834420800555E+00,  9.143146140479806E-03,
2458949.500000000, A.D. 2020-Apr-10 00:00:00.0000,  1.344827078353717E-02,  2.328495904919262E+00,  9.259621383088557E-03,
2458956.500000000, A.D. 2020-Apr-17 00:00:00.0000,  1.381573322182732E-02,  2.392120053818590E+00,  8.916564776941992E-03,
2458963.500000000, A.D. 2020-Apr-24 00:00:00.0000,  1.415943648920077E-02,  2.451630429796902E+00,  8.152591790204902E-03,
2458970.500000000, A.D. 2020-May-01 00:00:00.0000,  1.446355193196079E-02,  2.504286386424150E+00,  7.024841107765229E-03,
2458977.500000000, A.D. 2020-May-08 00:00:00.0000,  1.471485308299222E-02,  2.547797831910100E+00,  5.601744438728415E-03,
2458984.500000000, A.D. 2020-May-15 00:00:00.0000,  1.490249038751178E-02,  2.580286224077126E+00,  3.923307129674073E-03,
2458991.500000000, A.D. 2020-May-22 00:00:00.0000,  1.501659126159190E-02,  2.600042178007537E+00,  2.008953994369895E-03,
2458998.500000000, A.D. 2020-May-29 00:00:00.0000,  1.504848463927169E-02,  2.605564345170644E+00, -1.012356564625349E-04,
2459005.500000000, A.D. 2020-Jun-05 00:00:00.0000,  1.499142237404916E-02,  2.595684320219129E+00, -2.355633769052744E-03,
2459012.500000000, A.D. 2020-Jun-12 00:00:00.0000,  1.484032176025811E-02,  2.569522059947426E+00, -4.730576146845315E-03,
2459019.500000000, A.D. 2020-Jun-19 00:00:00.0000,  1.459062273329299E-02,  2.526288013644436E+00, -7.212446544578896E-03,
2459026.500000000, A.D. 2020-Jun-26 00:00:00.0000,  1.423888531028110E-02,  2.465386566739258E+00, -9.759681729129863E-03,
2459033.500000000, A.D. 2020-Jul-03 00:00:00.0000,  1.378376741162167E-02,  2.386585345352400E+00, -1.231454467038876E-02,
2459040.500000000, A.D. 2020-Jul-10 00:00:00.0000,  1.322587020588368E-02,  2.289988438594909E+00, -1.484389207341422E-02,
2459047.500000000, A.D. 2020-Jul-17 00:00:00.0000,  1.256696445910795E-02,  2.175902445102479E+00, -1.731185154190728E-02,
2459054.500000000, A.D. 2020-Jul-24 00:00:00.0000,  1.181102267484765E-02,  2.045015182543620E+00, -1.964567320891568E-02,
2459061.500000000, A.D. 2020-Jul-31 00:00:00.0000,  1.096556230748182E-02,  1.898628257795435E+00, -2.174812611553006E-02,
2459068.500000000, A.D. 2020-Aug-07 00:00:00.0000,  1.004180758194020E-02,  1.738685085160437E+00, -2.353540373352773E-02,
2459075.500000000, A.D. 2020-Aug-14 00:00:00.0000,  9.054808637413569E-03,  1.567791515460511E+00, -2.488900212247329E-02,
2459082.500000000, A.D. 2020-Aug-21 00:00:00.0000,  8.026099445002608E-03,  1.389676040211901E+00, -2.560186084492848E-02,
2459089.500000000, A.D. 2020-Aug-28 00:00:00.0000,  6.988050073934037E-03,  1.209943363160507E+00, -2.534061058752602E-02,
2459096.500000000, A.D. 2020-Sep-04 00:00:00.0000,  5.989915412742070E-03,  1.037121703888997E+00, -2.358353353188884E-02,
2459103.500000000, A.D. 2020-Sep-11 00:00:00.0000,  5.109020031464181E-03,  8.845993966732014E-01, -1.943836910635816E-02,
2459110.500000000, A.D. 2020-Sep-18 00:00:00.0000,  4.465421538386945E-03,  7.731637719996488E-01, -1.177633187615733E-02,
2459117.500000000, A.D. 2020-Sep-25 00:00:00.0000,  4.208576074641195E-03,  7.286923585253462E-01, -6.352831618948515E-04,
2459124.500000000, A.D. 2020-Oct-02 00:00:00.0000,  4.427256263453503E-03,  7.665556594903866E-01,  1.100026458061326E-02,
2459131.500000000, A.D. 2020-Oct-09 00:00:00.0000,  5.065124258247032E-03,  8.769990791435666E-01,  1.974683231678792E-02,
2459138.500000000, A.D. 2020-Oct-16 00:00:00.0000,  5.984089862087896E-03,  1.036113041060854E+00,  2.504457173123513E-02,
2459145.500000000, A.D. 2020-Oct-23 00:00:00.0000,  7.062531088193045E-03,  1.222839351015588E+00,  2.786676106073878E-02,
2459152.500000000, A.D. 2020-Oct-30 00:00:00.0000,  8.220366841366483E-03,  1.423312397195905E+00,  2.915497955916428E-02,
2459159.500000000, A.D. 2020-Nov-06 00:00:00.0000,  9.408625009508927E-03,  1.629052921241094E+00,  2.949889440550154E-02,
2459166.500000000, A.D. 2020-Nov-13 00:00:00.0000,  1.059631832687671E-02,  1.834695644406390E+00,  2.921816115805490E-02,
2459173.500000000, A.D. 2020-Nov-20 00:00:00.0000,  1.176197456287596E-02,  2.036522765212916E+00,  2.848259302456790E-02,
2459180.500000000, A.D. 2020-Nov-27 00:00:00.0000,  1.288989095994110E-02,  2.231815435470013E+00,  2.741820283265515E-02,
2459187.500000000, A.D. 2020-Dec-04 00:00:00.0000,  1.396870516991345E-02,  2.418606325579427E+00,  2.610930005719156E-02,
2459194.500000000, A.D. 2020-Dec-11 00:00:00.0000,  1.498957648314222E-02,  2.595364714116090E+00,  2.459853089318308E-02,
2459201.500000000, A.D. 2020-Dec-18 00:00:00.0000,  1.594486806940035E-02,  2.760768324915547E+00,  2.290961383002147E-02,
2459208.500000000, A.D. 2020-Dec-25 00:00:00.0000,  1.682833406713814E-02,  2.913735720574040E+00,  2.108940319813226E-02,
2459215.500000000, A.D. 2021-Jan-01 00:00:00.0000,  1.763557932718998E-02,  3.053505904603735E+00,  1.917508903813145E-02,
2459222.500000000, A.D. 2021-Jan-08 00:00:00.0000,  1.836323990037858E-02,  3.179496427260004E+00,  1.718101892025356E-02,
2459229.500000000, A.D. 2021-Jan-15 00:00:00.0000,  1.900830605395914E-02,  3.291186169472295E+00,  1.511703569916440E-02,
2459236.500000000, A.D. 2021-Jan-22 00:00:00.0000,  1.956876297061035E-02,  3.388226276435605E+00,  1.302201668288067E-02,
2459243.500000000, A.D. 2021-Jan-29 00:00:00.0000,  2.004415669025066E-02,  3.470538147398367E+00,  1.092720611690183E-02,
2459250.500000000, A.D. 2021-Feb-05 00:00:00.0000,  2.043486988742075E-02,  3.538188040403361E+00,  8.842947130093710E-03,
2459257.500000000, A.D. 2021-Feb-12 00:00:00.0000,  2.074155017095749E-02,  3.591288085444761E+00,  6.779608698432906E-03,
2459264.500000000, A.D. 2021-Feb-19 00:00:00.0000,  2.096590480404379E-02,  3.630133885979253E+00,  4.776802939403585E-03,
2459271.500000000, A.D. 2021-Feb-26 00:00:00.0000,  2.111118620479257E-02,  3.655288580746300E+00,  2.865316238040811E-03,
2459278.500000000, A.D. 2021-Mar-05 00:00:00.0000,  2.118147948698199E-02,  3.667459485270455E+00,  1.055604545576685E-03,
2459285.500000000, A.D. 2021-Mar-12 00:00:00.0000,  2.118118933771715E-02,  3.667409247482573E+00, -6.383134858310929E-04,
2459292.500000000, A.D. 2021-Mar-19 00:00:00.0000,  2.111595770092237E-02,  3.656114739691002E+00, -2.173616140166446E-03,
2459299.500000000, A.D. 2021-Mar-26 00:00:00.0000,  2.099303125294554E-02,  3.634830685010103E+00, -3.518459697542367E-03,
$$EOE
**************************************************************************************************************************
Coordinate system description:

 Ecliptic at the standard reference epoch

   Reference epoch: J2000.0
   X-Y plane: adopted Earth orbital plane at the reference epoch
              Note: obliquity of 84381.448 arcseconds (IAU76) wrt ICRF equator
   X-axis   : ICRF
   Z-axis   : perpendicular to the X-Y plane in the directional (+ or -) sense
              of Earth's north pole at the reference epoch.

 Symbol meaning [1 au= 149597870.700 km, 1 day= 86400.0 s]:

   JDTDB    Julian Day Number, Barycentric Dynamical Time
     LT     One-way down-leg Newtonian light-time (day)
     RG     Range; distance from coordinate center (au)
     RR     Range-rate; radial velocity wrt coord. center (au/day)

Geometric states/elements have no aberrations applied.


Computations by ...
    Solar System Dynamics Group, Horizons On-Line Ephemeris System
    4800 Oak Grove Drive, Jet Propulsion Laboratory
    Pasadena, CA  91109   USA
    Information  : https://ssd.jpl.nasa.gov/
    Documentation: https://ssd.jpl.nasa.gov/?horizons_doc
    Connect      : https://ssd.jpl.nasa.gov/?horizons (browser)
                   telnet ssd.jpl.nasa.gov 6775       (command-line)
                   e-mail command interface available
                   Script and CGI interfaces available
    Author       : Jon.D.Giorgini@jpl.nasa.gov
*******************************************************************************
